SENTINEL-6              
1 46984U 20086A   24117.62345770 -.00000045  00000+0  67791-4 0  9999
2 46984  66.0418 318.3691 0007754 270.7676  89.2451 12.80930456160225
